IRIDIUM 150             
1 43257U 18030J   23315.57536814  .00000029  00000+0  32524-5 0  9997
2 43257  86.3949 326.9343 0002310  99.5002 260.6455 14.34211528294197
IRIDIUM 143             
1 43258U 18030K   23315.48657153  .00000321  00000+0  10759-3 0  9997
2 43258  86.3952 327.0265 0002451  93.3410 266.8066 14.34222247294116
IRIDIUM 161             
1 43478U 18047C   23315.51505301  .00000268  00000+0  73670-4 0  9992
2 43478  86.4459 124.9880 0002021  91.7882 268.3550 14.43281006288305
IRIDIUM 152             
1 43479U 18047D   23315.52906476  .00001169  00000+0  41042-3 0  9990
2 43479  86.3934 124.8417 0002309  87.7901 272.3559 14.34218417286515
IRIDIUM 147             
1 43480U 18047E   23315.53539320  .00000566  00000+0  19513-3 0  9991
2 43480  86.3935 124.8276 0001801  88.6272 271.5130 14.34216754286516
IRIDIUM 110             
1 43481U 18047F   23315.54173471  .00000363  00000+0  12256-3 0  9996
2 43481  86.3936 124.8919 0001720  89.9671 270.1722 14.34216074286505
IRIDIUM 162             
1 43482U 18047G   23315.50876972  .00000274  00000+0  75538-4 0  9993
2 43482  86.4458 124.8936 0002040  91.6339 268.5096 14.43286555288296
IRIDIUM 160             
1 43569U 18061A   23315.62711284  .00000056  00000+0  12876-4 0  9996
2 43569  86.3941  93.2121 0002035  83.2012 276.9416 14.34212086277411
